GLOBALSTAR M045         
1 25676U 99019A   24173.67213544 -.00000101  00000+0 -64988-4 0  9995
2 25676  51.9967 252.7959 0000687 191.2090 324.7589 12.27039989149133
GLOBALSTAR M019         
1 25677U 99019B   24173.86917866 -.00000113  00000+0 -24299-3 0  9998
2 25677  51.9891 357.2478 0000567  14.3663 132.3094 12.13856516141386
GLOBALSTAR M044         
1 25678U 99019C   24173.58248438 -.00000044  00000+0  54913-3 0  9998
2 25678  51.9968 264.2943 0006441  68.7173  17.2903 11.90233866128388
GLOBALSTAR M042         
1 25679U 99019D   24173.96613741 -.00000079  00000+0  12086-3 0  9997
2 25679  52.0035 347.8512 0002060 274.2089 253.7202 12.22063346141215
GLOBALSTAR M025         
1 25770U 99031A   24173.59276979 -.00000069  00000+0 -36685-4 0  9992
2 25770  51.9820 274.6118 0001388 240.6904 220.1389 11.22550664441211
GLOBALSTAR M049         
1 25771U 99031B   24173.47255779 -.00000101  00000+0 -12358-2 0  9991
2 25771  51.9887 291.5255 0003363 133.5022 226.6054 11.12108692 77293
GLOBALSTAR M047         
1 25772U 99031C   24173.67661091 -.00000092  00000+0 -60964-3 0  9998
2 25772  51.9857 322.4747 0016049   6.2983 353.8022 11.31920706430287
GLOBALSTAR M052         
1 25773U 99031D   24173.95641153 -.00000079  00000+0 -45091-3 0  9996
2 25773  51.9890  44.1689 0002227 311.8923 150.1992 11.15051469438320
